[
    {
        "Altitude(m)": 703681.8368807093,
        "Argument of Periapsis(deg)": 0.0022780242373254137,
        "Eccentricity": 0.0,
        "Inclination(deg)": 45.0,
        "Latitude(deg)": -1.7028103054039814,
        "Longitude(deg)": -128.43586748604596,
        "Mean Anomaly(deg)": 182.30664332949624,
        "RAAN(deg)": 149.99784961170838,
        "Satellite Name": "Constellation 1 671",
        "Satellite Number": 671,
        "Semi-Major Axis(m)": 7083131.272910544,
        "Time(s)": 38
    },
    {
        "Altitude(m)": 703688.2606745102,
        "Argument of Periapsis(deg)": 0.002337972243570819,
        "Eccentricity": 0.0,
        "Inclination(deg)": 45.0,
        "Latitude(deg)": -1.7460033948405396,
        "Longitude(deg)": -128.39708303701127,
        "Mean Anomaly(deg)": 182.3673444697461,
        "RAAN(deg)": 149.9977930225428,
        "Satellite Name": "Constellation 1 671",
        "Satellite Number": 671,
        "Semi-Major Axis(m)": 7083131.272910544,
        "Time(s)": 39
    },
    {
        "Altitude(m)": 703694.7047731186,
        "Argument of Periapsis(deg)": 0.0023979202498162246,
        "Eccentricity": 0.0,
        "Inclination(deg)": 45.0,
        "Latitude(deg)": -1.7891954070477443,
        "Longitude(deg)": -128.35829670347357,
        "Mean Anomaly(deg)": 182.428045609996,
        "RAAN(deg)": 149.9977364333772,
        "Satellite Name": "Constellation 1 671",
        "Satellite Number": 671,
        "Semi-Major Axis(m)": 7083131.272910544,
        "Time(s)": 40
    },
    {
        "Altitude(m)": 703701.1691663071,
        "Argument of Periapsis(deg)": 0.00245786825606163,
        "Eccentricity": 0.0,
        "Inclination(deg)": 45.0,
        "Latitude(deg)": -1.8323863170265975,
        "Longitude(deg)": -128.31950843706048,
        "Mean Anomaly(deg)": 182.48874675024587,
        "RAAN(deg)": 149.99767984421166,
        "Satellite Name": "Constellation 1 671",
        "Satellite Number": 671,
        "Semi-Major Axis(m)": 7083131.272910544,
        "Time(s)": 41
    },
    {
        "Altitude(m)": 703707.6538437685,
        "Argument of Periapsis(deg)": 0.002517816262307036,
        "Eccentricity": 0.0,
        "Inclination(deg)": 45.0,
        "Latitude(deg)": -1.8755760997748532,
        "Longitude(deg)": -128.2807181893952,
        "Mean Anomaly(deg)": 182.54944789049577,
        "RAAN(deg)": 149.99762325504608,
        "Satellite Name": "Constellation 1 671",
        "Satellite Number": 671,
        "Semi-Major Axis(m)": 7083131.272910544,
        "Time(s)": 42
    },
    {
        "Altitude(m)": 703714.1587950836,
        "Argument of Periapsis(deg)": 0.0025777642685524413,
        "Eccentricity": 0.0,
        "Inclination(deg)": 45.0,
        "Latitude(deg)": -1.9187647302866948,
        "Longitude(deg)": -128.24192591209675,
        "Mean Anomaly(deg)": 182.61014903074565,
        "RAAN(deg)": 149.99756666588053,
        "Satellite Name": "Constellation 1 671",
        "Satellite Number": 671,
        "Semi-Major Axis(m)": 7083131.272910544,
        "Time(s)": 43
    },
    {
        "Altitude(m)": 703720.6840097642,
        "Argument of Periapsis(deg)": 0.002637712274797847,
        "Eccentricity": 0.0,
        "Inclination(deg)": 45.0,
        "Latitude(deg)": -1.961952183552388,
        "Longitude(deg)": -128.2031317248771,
        "Mean Anomaly(deg)": 182.67085017099555,
        "RAAN(deg)": 149.99751007671495,
        "Satellite Name": "Constellation 1 671",
        "Satellite Number": 671,
        "Semi-Major Axis(m)": 7083131.272910544,
        "Time(s)": 44
    },
    {
        "Altitude(m)": 703727.2294772154,
        "Argument of Periapsis(deg)": 0.0026976602810432526,
        "Eccentricity": 0.0,
        "Inclination(deg)": 45.0,
        "Latitude(deg)": -2.005138434559156,
        "Longitude(deg)": -128.16433524315246,
        "Mean Anomaly(deg)": 182.7315513112454,
        "RAAN(deg)": 149.9974534875494,
        "Satellite Name": "Constellation 1 671",
        "Satellite Number": 671,
        "Semi-Major Axis(m)": 7083131.272910544,
        "Time(s)": 45
    },
    {
        "Altitude(m)": 703733.7951867481,
        "Argument of Periapsis(deg)": 0.0027576082872886585,
        "Eccentricity": 0.0,
        "Inclination(deg)": 45.0,
        "Latitude(deg)": -2.048323458289925,
        "Longitude(deg)": -128.12553658662566,
        "Mean Anomaly(deg)": 182.7922524514954,
        "RAAN(deg)": 149.9973968983838,
        "Satellite Name": "Constellation 1 671",
        "Satellite Number": 671,
        "Semi-Major Axis(m)": 7083131.272910544,
        "Time(s)": 46
    },
    {
        "Altitude(m)": 703740.381127585,
        "Argument of Periapsis(deg)": 0.0028175562935340644,
        "Eccentricity": 0.0,
        "Inclination(deg)": 45.0,
        "Latitude(deg)": -2.0915072297236104,
        "Longitude(deg)": -128.08673570689814,
        "Mean Anomaly(deg)": 182.85295359174526,
        "RAAN(deg)": 149.99734030921823,
        "Satellite Name": "Constellation 1 671",
        "Satellite Number": 671,
        "Semi-Major Axis(m)": 7083131.272910544,
        "Time(s)": 47
    },
    {
        "Altitude(m)": 703746.9872888547,
        "Argument of Periapsis(deg)": 0.00287750429977947,
        "Eccentricity": 0.0,
        "Inclination(deg)": 45.0,
        "Latitude(deg)": -2.134689723835401,
        "Longitude(deg)": -128.0479325555663,
        "Mean Anomaly(deg)": 182.9136547319951,
        "RAAN(deg)": 149.99728372005268,
        "Satellite Name": "Constellation 1 671",
        "Satellite Number": 671,
        "Semi-Major Axis(m)": 7083131.272910544,
        "Time(s)": 48
    },
    {
        "Altitude(m)": 703753.6136595976,
        "Argument of Periapsis(deg)": 0.002937452306024875,
        "Eccentricity": 0.0,
        "Inclination(deg)": 45.0,
        "Latitude(deg)": -2.177870915596487,
        "Longitude(deg)": -128.00912708422146,
        "Mean Anomaly(deg)": 182.9743558722451,
        "RAAN(deg)": 149.9972271308871,
        "Satellite Name": "Constellation 1 671",
        "Satellite Number": 671,
        "Semi-Major Axis(m)": 7083131.272910544,
        "Time(s)": 49
    },
    {
        "Altitude(m)": 703760.2602287508,
        "Argument of Periapsis(deg)": 0.0029974003122702807,
        "Eccentricity": 0.0,
        "Inclination(deg)": 45.0,
        "Latitude(deg)": -2.2210507799734844,
        "Longitude(deg)": -127.97031924445083,
        "Mean Anomaly(deg)": 183.03505701249495,
        "RAAN(deg)": 149.99717054172154,
        "Satellite Name": "Constellation 1 671",
        "Satellite Number": 671,
        "Semi-Major Axis(m)": 7083131.272910544,
        "Time(s)": 50
    },
    {
        "Altitude(m)": 703766.9269851694,
        "Argument of Periapsis(deg)": 0.0030573483185156866,
        "Eccentricity": 0.0,
        "Inclination(deg)": 45.0,
        "Latitude(deg)": -2.264229291929244,
        "Longitude(deg)": -127.93150898783566,
        "Mean Anomaly(deg)": 183.09575815274488,
        "RAAN(deg)": 149.99711395255596,
        "Satellite Name": "Constellation 1 671",
        "Satellite Number": 671,
        "Semi-Major Axis(m)": 7083131.272910544,
        "Time(s)": 51
    },
    {
        "Altitude(m)": 703773.6139176135,
        "Argument of Periapsis(deg)": 0.003117296324761092,
        "Eccentricity": 0.0,
        "Inclination(deg)": 45.0,
        "Latitude(deg)": -2.307406426421587,
        "Longitude(deg)": -127.8926964340496,
        "Mean Anomaly(deg)": 183.15645929299473,
        "RAAN(deg)": 149.99705736339038,
        "Satellite Name": "Constellation 1 671",
        "Satellite Number": 671,
        "Semi-Major Axis(m)": 7083131.272910544,
        "Time(s)": 52
    },
    {
        "Altitude(m)": 703780.3210147424,
        "Argument of Periapsis(deg)": 0.0031772443310064975,
        "Eccentricity": 0.0,
        "Inclination(deg)": 45.0,
        "Latitude(deg)": -2.350582158404905,
        "Longitude(deg)": -127.85388119846962,
        "Mean Anomaly(deg)": 183.21716043324466,
        "RAAN(deg)": 149.99700077422483,
        "Satellite Name": "Constellation 1 671",
        "Satellite Number": 671,
        "Semi-Major Axis(m)": 7083131.272910544,
        "Time(s)": 53
    },
    {
        "Altitude(m)": 703787.048265138,
        "Argument of Periapsis(deg)": 0.0032371923372519038,
        "Eccentricity": 0.0,
        "Inclination(deg)": 45.0,
        "Latitude(deg)": -2.393756462828129,
        "Longitude(deg)": -127.81506340075879,
        "Mean Anomaly(deg)": 183.27786157349456,
        "RAAN(deg)": 149.99694418505925,
        "Satellite Name": "Constellation 1 671",
        "Satellite Number": 671,
        "Semi-Major Axis(m)": 7083131.272910544,
        "Time(s)": 54
    },
    {
        "Altitude(m)": 703793.7956572756,
        "Argument of Periapsis(deg)": 0.0032971403434973088,
        "Eccentricity": 0.0,
        "Inclination(deg)": 45.0,
        "Latitude(deg)": -2.436929314635952,
        "Longitude(deg)": -127.77624299247726,
        "Mean Anomaly(deg)": 183.3385627137444,
        "RAAN(deg)": 149.9968875958937,
        "Satellite Name": "Constellation 1 671",
        "Satellite Number": 671,
        "Semi-Major Axis(m)": 7083131.272910544,
        "Time(s)": 55
    },
    {
        "Altitude(m)": 703800.563179544,
        "Argument of Periapsis(deg)": 0.0033570883497427146,
        "Eccentricity": 0.0,
        "Inclination(deg)": 45.0,
        "Latitude(deg)": -2.4801006887683736,
        "Longitude(deg)": -127.73741992517974,
        "Mean Anomaly(deg)": 183.39926385399443,
        "RAAN(deg)": 149.99683100672812,
        "Satellite Name": "Constellation 1 671",
        "Satellite Number": 671,
        "Semi-Major Axis(m)": 7083131.272910544,
        "Time(s)": 56
    }
]